[{"OBJECT_NAME":"ONEWEB-0621","OBJECT_ID":"2023-004Y","EPOCH":"2026-03-09T21:40:41.791872","MEAN_MOTION":13.11417538,"ECCENTRICITY":0.0001609,"INCLINATION":87.8873,"RA_OF_ASC_NODE":40.799,"ARG_OF_PERICENTER":83.3986,"MEAN_ANOMALY":276.7325,"EPHEMERIS_TYPE":0,"CLASSIFICATION_TYPE":"U","NORAD_CAT_ID":55162,"ELEMENT_SET_NO":999,"REV_AT_EPOCH":15279,"BSTAR":0.0014640637,"MEAN_MOTION_DOT":5.32e-6,"MEAN_MOTION_DDOT":0},{"OBJECT_NAME":"FREGAT DEB","OBJECT_ID":"2011-037HS","EPOCH":"2026-03-09T07:41:20.544288","MEAN_MOTION":12.53871844,"ECCENTRICITY":0.12901924,"INCLINATION":51.3513,"RA_OF_ASC_NODE":80.4402,"ARG_OF_PERICENTER":45.7358,"MEAN_ANOMALY":324.2365,"EPHEMERIS_TYPE":0,"CLASSIFICATION_TYPE":"U","NORAD_CAT_ID":46015,"ELEMENT_SET_NO":999,"REV_AT_EPOCH":23949,"BSTAR":0.0078344163,"MEAN_MOTION_DOT":0.00043659,"MEAN_MOTION_DDOT":0}]
